{"type": "FeatureCollection", "features": [ {"type": "Feature", "properties": {"norad_id": 66519, "name": "STARLINK-35931", "group": "last-30-days", "lat": 8.339387387333115, "lon": 115.96424425189291, "alt_km": 343.71533944269504, "timestamp": "2025-12-03T19:33:05.756697+00:00", "meta": {"OBJECT_NAME": "STARLINK-35931", "OBJECT_ID": "2025-265D", "EPOCH": "2025-12-03T12:00:02.998944", "MEAN_MOTION": 15.75065964, "ECCENTRICITY": 0.0001645, "INCLINATION": 42.9997, "RA_OF_ASC_NODE": 108.8226, "ARG_OF_PERICENTER": 253.1745, "MEAN_ANOMALY": 133.0783, "EPHEMERIS_TYPE": 0, "CLASSIFICATION_TYPE": "U", "NORAD_CAT_ID": 66519, "ELEMENT_SET_NO": 999, "REV_AT_EPOCH": 351, "BSTAR": -0.00053087, "MEAN_MOTION_DOT": -0.00081339, "MEAN_MOTION_DDOT": 0}, "tle": {"line1": "1 66519U 25265D   25337.50003471 -.00081339  00000+0 -53087-3 0  9998", "line2": "2 66519  42.9997 108.8226 0001645 253.1745 133.0783 15.75065964  3511"}}, "geometry": {"type": "Point", "coordinates": [115.96424425189291, 8.339387387333115]}}, {"type": "Feature", "properties": {"norad_id": 66520, "name": "STARLINK-35952", "group": "last-30-days", "lat": 9.622784610083903, "lon": 117.39238859691949, "alt_km": 343.206691946677, "timestamp": "2025-12-03T19:33:05.756710+00:00", "meta": {"OBJECT_NAME": "STARLINK-35952", "OBJECT_ID": "2025-265E", "EPOCH": "2025-12-03T12:00:02.998944", "MEAN_MOTION": 15.75025851, "ECCENTRICITY": 0.0001526, "INCLINATION": 42.9996, "RA_OF_ASC_NODE": 108.8181, "ARG_OF_PERICENTER": 270.4707, "MEAN_ANOMALY": 117.7103, "EPHEMERIS_TYPE": 0, "CLASSIFICATION_TYPE": "U", "NORAD_CAT_ID": 66520, "ELEMENT_SET_NO": 999, "REV_AT_EPOCH": 351, "BSTAR": -4.675e-05, "MEAN_MOTION_DOT": -7.648e-05, "MEAN_MOTION_DDOT": 0}, "tle": {"line1": "1 66520U 25265E   25337.50003471 -.00007648  00000+0 -46750-4 0  9991", "line2": "2 66520  42.9996 108.8181 0001526 270.4707 117.7103 15.75025851  3516"}}, "geometry": {"type": "Point", "coordinates": [117.39238859691949, 9.622784610083903]}}, {"type": "Feature", "properties": {"norad_id": 66521, "name": "STARLINK-35915", "group": "last-30-days", "lat": 10.916725721458086, "lon": 118.84848229874186, "alt_km": 343.23909950731286, "timestamp": "2025-12-03T19:33:05.756720+00:00", "meta": {"OBJECT_NAME": "STARLINK-35915", "OBJECT_ID": "2025-265F", "EPOCH": "2025-12-03T12:00:02.998944", "MEAN_MOTION": 15.75082314, "ECCENTRICITY": 0.0001647, "INCLINATION": 42.9995, "RA_OF_ASC_NODE": 108.812, "ARG_OF_PERICENTER": 262.2169, "MEAN_ANOMALY": 127.8683, "EPHEMERIS_TYPE": 0, "CLASSIFICATION_TYPE": "U", "NORAD_CAT_ID": 66521, "ELEMENT_SET_NO": 999, "REV_AT_EPOCH": 351, "BSTAR": -0.0006799, "MEAN_MOTION_DOT": -0.00103839, "MEAN_MOTION_DDOT": 0}, "tle": {"line1": "1 66521U 25265F   25337.50003471 -.00103839  00000+0 -67990-3 0  9999", "line2": "2 66521  42.9995 108.8120 0001647 262.2169 127.8683 15.75082314  3516"}}, "geometry": {"type": "Point", "coordinates": [118.84848229874186, 10.916725721458086]}}, {"type": "Feature", "properties": {"norad_id": 66522, "name": "STARLINK-35946", "group": "last-30-days", "lat": 12.190150267084437, "lon": 120.30362879391336, "alt_km": 343.0544211701399, "timestamp": "2025-12-03T19:33:05.756730+00:00", "meta": {"OBJECT_NAME": "STARLINK-35946", "OBJECT_ID": "2025-265G", "EPOCH": "2025-12-03T12:00:02.998944", "MEAN_MOTION": 15.75078087, "ECCENTRICITY": 0.0001618, "INCLINATION": 42.9996, "RA_OF_ASC_NODE": 108.8078, "ARG_OF_PERICENTER": 263.5577, "MEAN_ANOMALY": 128.4447, "EPHEMERIS_TYPE": 0, "CLASSIFICATION_TYPE": "U", "NORAD_CAT_ID": 66522, "ELEMENT_SET_NO": 999, "REV_AT_EPOCH": 351, "BSTAR": -0.0006513, "MEAN_MOTION_DOT": -0.00099523, "MEAN_MOTION_DDOT": 0}, "tle": {"line1": "1 66522U 25265G   25337.50003471 -.00099523  00000+0 -65130-3 0  9998", "line2": "2 66522  42.9996 108.8078 0001618 263.5577 128.4447 15.75078087  3512"}}, "geometry": {"type": "Point", "coordinates": [120.30362879391336, 12.190150267084437]}}, {"type": "Feature", "properties": {"norad_id": 66523, "name": "STARLINK-35969", "group": "last-30-days", "lat": 13.453971532967318, "lon": 121.77011502353011, "alt_km": 342.6976273596765, "timestamp": "2025-12-03T19:33:05.756740+00:00", "meta": {"OBJECT_NAME": "STARLINK-35969", "OBJECT_ID": "2025-265H", "EPOCH": "2025-12-03T12:00:02.998944", "MEAN_MOTION": 15.75076807, "ECCENTRICITY": 0.0001298, "INCLINATION": 42.9997, "RA_OF_ASC_NODE": 108.8031, "ARG_OF_PERICENTER": 270.9091, "MEAN_ANOMALY": 123.007, "EPHEMERIS_TYPE": 0, "CLASSIFICATION_TYPE": "U", "NORAD_CAT_ID": 66523, "ELEMENT_SET_NO": 999, "REV_AT_EPOCH": 351, "BSTAR": -0.00062672, "MEAN_MOTION_DOT": -0.00095817, "MEAN_MOTION_DDOT": 0}, "tle": {"line1": "1 66523U 25265H   25337.50003471 -.00095817  00000+0 -62672-3 0  9999", "line2": "2 66523  42.9997 108.8031 0001298 270.9091 123.0070 15.75076807  3511"}}, "geometry": {"type": "Point", "coordinates": [121.77011502353011, 13.453971532967318]}}, {"type": "Feature", "properties": {"norad_id": 66524, "name": "STARLINK-35687", "group": "last-30-days", "lat": 14.714758655006747, "lon": 123.25850314247558, "alt_km": 342.71131111496743, "timestamp": "2025-12-03T19:33:05.756750+00:00", "meta": {"OBJECT_NAME": "STARLINK-35687", "OBJECT_ID": "2025-265J", "EPOCH": "2025-12-03T12:00:02.998944", "MEAN_MOTION": 15.75071039, "ECCENTRICITY": 0.0001502, "INCLINATION": 42.9997, "RA_OF_ASC_NODE": 108.798, "ARG_OF_PERICENTER": 261.6712, "MEAN_ANOMALY": 134.1634, "EPHEMERIS_TYPE": 0, "CLASSIFICATION_TYPE": "U", "NORAD_CAT_ID": 66524, "ELEMENT_SET_NO": 999, "REV_AT_EPOCH": 351, "BSTAR": -0.00051167, "MEAN_MOTION_DOT": -0.00078457, "MEAN_MOTION_DDOT": 0}, "tle": {"line1": "1 66524U 25265J   25337.50003471 -.00078457  00000+0 -51167-3 0  9998", "line2": "2 66524  42.9997 108.7980 0001502 261.6712 134.1634 15.75071039  3510"}}, "geometry": {"type": "Point", "coordinates": [123.25850314247558, 14.714758655006747]}}, {"type": "Feature", "properties": {"norad_id": 66525, "name": "STARLINK-35975", "group": "last-30-days", "lat": 15.966311340369055, "lon": 124.76553989552488, "alt_km": 342.58955580405836, "timestamp": "2025-12-03T19:33:05.756759+00:00", "meta": {"OBJECT_NAME": "STARLINK-35975", "OBJECT_ID": "2025-265K", "EPOCH": "2025-12-03T12:00:02.998944", "MEAN_MOTION": 15.75075987, "ECCENTRICITY": 0.0001568, "INCLINATION": 42.9995, "RA_OF_ASC_NODE": 108.7936, "ARG_OF_PERICENTER": 260.528, "MEAN_ANOMALY": 137.2237, "EPHEMERIS_TYPE": 0, "CLASSIFICATION_TYPE": "U", "NORAD_CAT_ID": 66525, "ELEMENT_SET_NO": 999, "REV_AT_EPOCH": 351, "BSTAR": -0.00056743, "MEAN_MOTION_DOT": -0.00086889, "MEAN_MOTION_DDOT": 0}, "tle": {"line1": "1 66525U 25265K   25337.50003471 -.00086889  00000+0 -56743-3 0  9992", "line2": "2 66525  42.9995 108.7936 0001568 260.5280 137.2237 15.75075987  3519"}}, "geometry": {"type": "Point", "coordinates": [124.76553989552488, 15.966311340369055]}}, {"type": "Feature", "properties": {"norad_id": 66526, "name": "STARLINK-35932", "group": "last-30-days", "lat": 17.176612902765203, "lon": 126.25282987334097, "alt_km": 341.9212912679159, "timestamp": "2025-12-03T19:33:05.756772+00:00", "meta": {"OBJECT_NAME": "STARLINK-35932", "OBJECT_ID": "2025-265L", "EPOCH": "2025-12-03T12:00:02.998944", "MEAN_MOTION": 15.75129348, "ECCENTRICITY": 0.0001875, "INCLINATION": 42.9997, "RA_OF_ASC_NODE": 108.7891, "ARG_OF_PERICENTER": 276.9096, "MEAN_ANOMALY": 122.6212, "EPHEMERIS_TYPE": 0, "CLASSIFICATION_TYPE": "U", "NORAD_CAT_ID": 66526, "ELEMENT_SET_NO": 999, "REV_AT_EPOCH": 340, "BSTAR": -7.0177e-05, "MEAN_MOTION_DOT": -0.00011287, "MEAN_MOTION_DDOT": 0}, "tle": {"line1": "1 66526U 25265L   25337.50003471 -.00011287  00000+0 -70177-4 0  9991", "line2": "2 66526  42.9997 108.7891 0001875 276.9096 122.6212 15.75129348  3409"}}, "geometry": {"type": "Point", "coordinates": [126.25282987334097, 17.176612902765203]}}, {"type": "Feature", "properties": {"norad_id": 66527, "name": "STARLINK-35935", "group": "last-30-days", "lat": 18.33965181309185, "lon": 127.71406539026094, "alt_km": 341.6101481521564, "timestamp": "2025-12-03T19:33:05.756782+00:00", "meta": {"OBJECT_NAME": "STARLINK-35935", "OBJECT_ID": "2025-265M", "EPOCH": "2025-12-03T12:00:02.998944", "MEAN_MOTION": 15.74907659, "ECCENTRICITY": 9.69e-05, "INCLINATION": 42.9996, "RA_OF_ASC_NODE": 108.7843, "ARG_OF_PERICENTER": 290.3317, "MEAN_ANOMALY": 111.1863, "EPHEMERIS_TYPE": 0, "CLASSIFICATION_TYPE": "U", "NORAD_CAT_ID": 66527, "ELEMENT_SET_NO": 999, "REV_AT_EPOCH": 351, "BSTAR": 0.0015746, "MEAN_MOTION_DOT": 0.00247195, "MEAN_MOTION_DDOT": 0}, "tle": {"line1": "1 66527U 25265M   25337.50003471  .00247195  00000+0  15746-2 0  9998", "line2": "2 66527  42.9996 108.7843 0000969 290.3317 111.1863 15.74907659  3510"}}, "geometry": {"type": "Point", "coordinates": [127.71406539026094, 18.33965181309185]}}, {"type": "Feature", "properties": {"norad_id": 66528, "name": "STARLINK-35928", "group": "last-30-days", "lat": 19.62858619326401, "lon": 129.3735236494523, "alt_km": 341.8783616041501, "timestamp": "2025-12-03T19:33:05.756795+00:00", "meta": {"OBJECT_NAME": "STARLINK-35928", "OBJECT_ID": "2025-265N", "EPOCH": "2025-12-03T12:00:02.998944", "MEAN_MOTION": 15.75122291, "ECCENTRICITY": 0.0001349, "INCLINATION": 42.9997, "RA_OF_ASC_NODE": 108.7794, "ARG_OF_PERICENTER": 260.1551, "MEAN_ANOMALY": 143.2662, "EPHEMERIS_TYPE": 0, "CLASSIFICATION_TYPE": "U", "NORAD_CAT_ID": 66528, "ELEMENT_SET_NO": 999, "REV_AT_EPOCH": 351, "BSTAR": -0.00054185, "MEAN_MOTION_DOT": -0.00083194, "MEAN_MOTION_DDOT": 0}, "tle": {"line1": "1 66528U 25265N   25337.50003471 -.00083194  00000+0 -54185-3 0  9999", "line2": "2 66528  42.9997 108.7794 0001349 260.1551 143.2662 15.75122291  3510"}}, "geometry": {"type": "Point", "coordinates": [129.3735236494523, 19.62858619326401]}}]}